48991,ONEWEB-0273,2021,109.37,148.0,+,87.91,Active,1,LEO,Russia,UK,Commercial,Communications,Soyuz,1 48991U 21060AA  23350.73118886  .00000034  00000+0  54454-4 0  9997,2 48991  87.9081  50.5813 0001810 109.7668 250.3658 13.16594790119392,13.1659479,0.000181,LEO
48992,ONEWEB-0274,2021,109.37,148.0,+,87.91,Active,1,LEO,Russia,UK,Commercial,Communications,Soyuz,1 48992U 21060AB  23350.68051637 -.00000312  00000+0 -84964-3 0  9991,2 48992  87.9078  50.5952 0001150 104.0957 256.0301 13.16593707119428,13.16593707,0.000115,LEO
48993,ONEWEB-0275,2021,109.37,148.0,+,87.91,Active,1,LEO,Russia,UK,Commercial,Communications,Soyuz,1 48993U 21060AC  23351.12597045  .00000006  00000+0 -17529-4 0  9993,2 48993  87.9070  50.5020 0001637  96.1873 263.9444 13.16592664120704,13.16592664,0.0001637,LEO
48994,ONEWEB-0276,2021,109.37,148.0,+,87.91,Active,1,LEO,Russia,UK,Commercial,Communications,Soyuz,1 48994U 21060AD  23350.70374588  .00000086  00000+0  19164-3 0  9995,2 48994  87.9080  50.5800 0001911 116.4073 243.7255 13.16597783119379,13.16597783,0.0001911,LEO
48995,ONEWEB-0277,2021,109.37,148.0,+,87.91,Active,1,LEO,Russia,UK,Commercial,Communications,Soyuz,1 48995U 21060AE  23351.17238459 -.00002477  00000+0 -65135-2 0  9990,2 48995  87.9080  50.5255 0001761 110.0959 250.0361 13.16608836120711,13.16608836,0.0001761,LEO
48996,ONEWEB-0278,2021,109.37,148.0,+,87.91,Active,1,LEO,Russia,UK,Commercial,Communications,Soyuz,1 48996U 21060AF  23351.16183877  .00000097  00000+0  22079-3 0  9998,2 48996  87.9079  50.4853 0002118  98.8962 261.2409 13.16593564120861,13.16593564,0.0002118,LEO
48997,ONEWEB-0279,2021,109.37,148.0,+,87.91,Active,1,LEO,Russia,UK,Commercial,Communications,Soyuz,1 48997U 21060AG  23351.17028366  .00000153  00000+0  36628-3 0  9999,2 48997  87.9080  50.4818 0001784 103.9958 256.1371 13.16593377120780,13.16593377,0.0001784,LEO
48998,ONEWEB-0280,2021,109.37,148.0,+,87.91,Active,1,LEO,Russia,UK,Commercial,Communications,Soyuz,1 48998U 21060AH  23350.65307673 -.00000056  00000+0 -18114-3 0  9997,2 48998  87.9081  50.5849 0001452 126.2357 233.8908 13.16592715119354,13.16592715,0.0001452,LEO
